{
  "norad_id": 53806,
  "name": "STARLINK-4768",
  "history": [
    {
      "epoch": "2026-03-28T12:47:56.441760Z",
      "apogee_km": 540.7114750549863,
      "perigee_km": 538.7888558539644,
      "latitude_deg": -2.4858573788418717e-05,
      "longitude_deg": 146.43703500504293,
      "height_km": 540.6215404550977,
      "semi_major_axis_km": 6917.8871654544755,
      "eccentricity": 0.00013896,
      "inclination_deg": 53.2173,
      "raan_deg": 164.3746,
      "arg_perigee_deg": 88.5525,
      "mean_anomaly_deg": 271.5626,
      "mean_motion_rev_day": 15.08837783
    }
  ]
}