{"fetched_at":"2026-03-29T16:36:15Z","count":15609,"tles":[{"name":"STARLINK-4768","line1":"1 53806U 22111AK  26087.53329215  .00000796  00000+0  68080-4 0  9999","line2":"2 53806  53.2173 164.3746 0001389  88.5525 271.5626 15.08837783196870","category":"Starlink"}]}